<?xml version="1.0" encoding="utf-8"?>
<osm generator="OSM Conflator 1.4.0" version="0.6">
  <changeset>
    <tag k="source" v="CP:201810"/>
    <tag k="created_by" v="OSM Conflator 1.4.0"/>
    <tag k="type" v="import"/>
  </changeset>
  <node id="5423510311" version="1" lat="49.6241072" lon="13.8999323" action="modify">
    <tag k="amenity" v="post_box"/>
    <tag k="collection_times" v="Mo-Fr 9:00"/>
    <tag k="operator" v="Česká pošta, s.p."/>
    <tag k="ref" v="26107:108"/>
    <tag k="source" v="CP:201810"/>
  </node>
  <node id="5586797308" version="1" lat="49.7820576" lon="13.9872491" action="modify">
    <tag k="amenity" v="post_box"/>
    <tag k="collection_times" v="Mo-Fr 9:00"/>
    <tag k="operator" v="Česká pošta, s.p."/>
    <tag k="ref" v="26107:325"/>
    <tag k="source" v="CP:201810"/>
  </node>
  <node id="5443028598" version="2" lat="49.6985099" lon="14.2347489" action="modify">
    <tag k="amenity" v="post_box"/>
    <tag k="collection_times" v="Mo-Fr 9:00"/>
    <tag k="operator" v="Česká pošta, s.p."/>
    <tag k="ref" v="26107:379"/>
    <tag k="source" v="CP:201810"/>
  </node>
  <node id="5581151974" version="1" lat="49.6619638" lon="14.4252095" action="modify">
    <tag k="amenity" v="post_box"/>
    <tag k="collection_times" v="Mo-Fr 9:00"/>
    <tag k="operator" v="Česká pošta, s.p."/>
    <tag k="ref" v="26107:173"/>
    <tag k="source" v="CP:201810"/>
  </node>
  <node id="5590944870" version="1" lat="49.8135552" lon="14.323773" action="modify">
    <tag k="amenity" v="post_box"/>
    <tag k="collection_times" v="Mo-Fr 9:00"/>
    <tag k="operator" v="Česká pošta, s.p."/>
    <tag k="ref" v="26107:372"/>
    <tag k="source" v="CP:201810"/>
  </node>
  <node id="4699979920" version="3" lat="49.7819137" lon="14.1986578" action="modify">
    <tag k="amenity" v="post_box"/>
    <tag k="collection_times" v="Mo-Fr 8:30"/>
    <tag k="operator" v="Česká pošta, s.p."/>
    <tag k="ref" v="26107:375"/>
    <tag k="source" v="CP:201810"/>
  </node>
  <node id="5581151984" version="1" lat="49.6669258" lon="14.5164581" action="modify">
    <tag k="amenity" v="post_box"/>
    <tag k="collection_times" v="Mo-Fr 8:15"/>
    <tag k="operator" v="Česká pošta, s.p."/>
    <tag k="ref" v="26107:204"/>
    <tag k="source" v="CP:201810"/>
  </node>
  <node id="5443028593" version="1" lat="49.6906658" lon="14.0343421" action="modify">
    <tag k="amenity" v="post_box"/>
    <tag k="collection_times" v="Mo-Fr 9:00"/>
    <tag k="operator" v="Česká pošta, s.p."/>
    <tag k="ref" v="26107:131"/>
    <tag k="source" v="CP:201810"/>
  </node>
  <node id="5581151968" version="1" lat="49.6723887" lon="14.3900581" action="modify">
    <tag k="amenity" v="post_box"/>
    <tag k="collection_times" v="Mo-Fr 8:00"/>
    <tag k="operator" v="Česká pošta, s.p."/>
    <tag k="ref" v="26107:219"/>
    <tag k="source" v="CP:201810"/>
  </node>
  <node id="5430066329" version="2" lat="49.6970054" lon="14.0532735" action="modify">
    <tag k="amenity" v="post_box"/>
    <tag k="collection_times" v="Mo-Fr 8:15"/>
    <tag k="operator" v="Česká pošta, s.p."/>
    <tag k="ref" v="26107:140"/>
    <tag k="source" v="CP:201810"/>
  </node>
  <node id="5583044822" version="1" lat="49.6491568" lon="14.0602878" action="modify">
    <tag k="amenity" v="post_box"/>
    <tag k="collection_times" v="Mo-Fr 9:00"/>
    <tag k="operator" v="Česká pošta, s.p."/>
    <tag k="ref" v="26107:237"/>
    <tag k="source" v="CP:201810"/>
  </node>
  <node id="5430066324" version="1" lat="49.7697029" lon="14.3213375" action="modify">
    <tag k="amenity" v="post_box"/>
    <tag k="collection_times" v="Mo-Fr 9:00"/>
    <tag k="operator" v="Česká pošta, s.p."/>
    <tag k="ref" v="26107:345"/>
    <tag k="source" v="CP:201810"/>
  </node>
  <node id="5583044856" version="1" lat="49.5761491" lon="14.0734227" action="modify">
    <tag k="amenity" v="post_box"/>
    <tag k="collection_times" v="Mo-Fr 9:00"/>
    <tag k="operator" v="Česká pošta, s.p."/>
    <tag k="ref" v="26107:400"/>
    <tag k="source" v="CP:201810"/>
  </node>
  <node id="5430066333" version="2" lat="49.7134712" lon="14.0127741" action="modify">
    <tag k="amenity" v="post_box"/>
    <tag k="collection_times" v="Mo-Fr 8:00"/>
    <tag k="operator" v="Česká pošta, s.p."/>
    <tag k="ref" v="26107:136"/>
    <tag k="source" v="CP:201810"/>
  </node>
  <node id="5415306323" version="4" lat="49.8309089" lon="14.275491" action="modify">
    <tag k="amenity" v="post_box"/>
    <tag k="collection_times" v="Mo-Fr 9:00"/>
    <tag k="note" v="Masarykova třída 125, 26204, Nová Ves pod Pleší , Budova pošty Nová Ves pod Pleší"/>
    <tag k="operator" v="Česká pošta, s.p."/>
    <tag k="ref" v="26107:376"/>
    <tag k="source" v="CP:201810"/>
    <tag k="source:collection_times" v="CP:201810"/>
  </node>
  <node id="5412267702" version="2" lat="49.7418947" lon="14.151663" action="modify">
    <tag k="amenity" v="post_box"/>
    <tag k="collection_times" v="Mo-Fr 9:00"/>
    <tag k="operator" v="Česká pošta, s.p."/>
    <tag k="ref" v="26107:378"/>
    <tag k="source" v="CP:201810"/>
  </node>
  <node id="5583044875" version="1" lat="49.6049071" lon="14.2777233" action="modify">
    <tag k="amenity" v="post_box"/>
    <tag k="collection_times" v="Mo-Fr 8:00"/>
    <tag k="operator" v="Česká pošta, s.p."/>
    <tag k="ref" v="26107:394"/>
    <tag k="source" v="CP:201810"/>
  </node>
  <node id="5584998859" version="1" lat="49.6441549" lon="13.837519" action="modify">
    <tag k="amenity" v="post_box"/>
    <tag k="collection_times" v="Mo-Fr 9:00"/>
    <tag k="operator" v="Česká pošta, s.p."/>
    <tag k="ref" v="26107:105"/>
    <tag k="source" v="CP:201810"/>
  </node>
  <node id="5415306329" version="1" lat="49.7245656" lon="14.082911" action="modify">
    <tag k="amenity" v="post_box"/>
    <tag k="collection_times" v="Mo-Fr 9:00"/>
    <tag k="operator" v="Česká pošta, s.p."/>
    <tag k="ref" v="26107:139"/>
    <tag k="source" v="CP:201810"/>
  </node>
  <node id="5584998882" version="1" lat="49.655915" lon="13.9436385" action="modify">
    <tag k="amenity" v="post_box"/>
    <tag k="collection_times" v="Mo-Fr 9:00"/>
    <tag k="operator" v="Česká pošta, s.p."/>
    <tag k="ref" v="26107:162"/>
    <tag k="source" v="CP:201810"/>
  </node>
  <node id="5583044840" version="1" lat="49.6005356" lon="14.1057765" action="modify">
    <tag k="amenity" v="post_box"/>
    <tag k="collection_times" v="Mo-Fr 9:00"/>
    <tag k="operator" v="Česká pošta, s.p."/>
    <tag k="ref" v="26107:385"/>
    <tag k="source" v="CP:201810"/>
  </node>
  <node id="5584998898" version="1" lat="49.687012" lon="14.2736832" action="modify">
    <tag k="amenity" v="post_box"/>
    <tag k="collection_times" v="Mo-Fr 9:00"/>
    <tag k="operator" v="Česká pošta, s.p."/>
    <tag k="ref" v="26107:380"/>
    <tag k="source" v="CP:201810"/>
  </node>
  <node id="5584998875" version="1" lat="49.6254083" lon="13.9674296" action="modify">
    <tag k="amenity" v="post_box"/>
    <tag k="collection_times" v="Mo-Fr 9:00"/>
    <tag k="operator" v="Česká pošta, s.p."/>
    <tag k="ref" v="26107:130"/>
    <tag k="source" v="CP:201810"/>
  </node>
  <node id="5581151993" version="1" lat="49.7696999" lon="14.3521286" action="modify">
    <tag k="amenity" v="post_box"/>
    <tag k="collection_times" v="Mo-Fr 8:45"/>
    <tag k="operator" v="Česká pošta, s.p."/>
    <tag k="ref" v="26107:360"/>
    <tag k="source" v="CP:201810"/>
  </node>
  <node id="900581908" version="6" lat="49.6411363" lon="14.2524543" action="modify">
    <tag k="amenity" v="post_box"/>
    <tag k="collection_times" v="Mo-Fr 8:30"/>
    <tag k="opening_hours" v="Mo 08:00-11:00,13:00-17:00; Tu,Th,Fr 08:00-11:00,13:00-16:00; We 08:00-11:00,13:00-18:00"/>
    <tag k="operator" v="Česká pošta, s.p."/>
    <tag k="ref" v="26107:259"/>
    <tag k="source" v="CP:201810"/>
  </node>
  <node id="5583044827" version="1" lat="49.6211274" lon="14.1367792" action="modify">
    <tag k="amenity" v="post_box"/>
    <tag k="collection_times" v="Mo-Fr 9:00"/>
    <tag k="operator" v="Česká pošta, s.p."/>
    <tag k="ref" v="26107:387"/>
    <tag k="source" v="CP:201810"/>
  </node>
  <node id="5583044833" version="1" lat="49.6565357" lon="14.1733426" action="modify">
    <tag k="amenity" v="post_box"/>
    <tag k="collection_times" v="Mo-Fr 9:00"/>
    <tag k="operator" v="Česká pošta, s.p."/>
    <tag k="ref" v="26107:396"/>
    <tag k="source" v="CP:201810"/>
  </node>
  <node id="5584998879" version="1" lat="49.6412424" lon="13.970791" action="modify">
    <tag k="amenity" v="post_box"/>
    <tag k="collection_times" v="Mo-Fr 8:00"/>
    <tag k="operator" v="Česká pošta, s.p."/>
    <tag k="ref" v="26107:148"/>
    <tag k="source" v="CP:201810"/>
  </node>
  <node id="5581151998" version="1" lat="49.8226421" lon="14.3348779" action="modify">
    <tag k="amenity" v="post_box"/>
    <tag k="collection_times" v="Mo-Fr 8:45"/>
    <tag k="operator" v="Česká pošta, s.p."/>
    <tag k="ref" v="26107:355"/>
    <tag k="source" v="CP:201810"/>
  </node>
  <node id="5581151995" version="1" lat="49.7804486" lon="14.3508617" action="modify">
    <tag k="amenity" v="post_box"/>
    <tag k="collection_times" v="Mo-Fr 9:30"/>
    <tag k="operator" v="Česká pošta, s.p."/>
    <tag k="ref" v="26107:371"/>
    <tag k="source" v="CP:201810"/>
  </node>
  <node id="5583044887" version="1" lat="49.5744784" lon="14.3996703" action="modify">
    <tag k="amenity" v="post_box"/>
    <tag k="collection_times" v="Mo-Fr 8:30"/>
    <tag k="operator" v="Česká pošta, s.p."/>
    <tag k="ref" v="26107:180"/>
    <tag k="source" v="CP:201810"/>
  </node>
  <node id="5586797312" version="1" lat="49.6039056" lon="13.8656924" action="modify">
    <tag k="amenity" v="post_box"/>
    <tag k="collection_times" v="Mo-Fr 9:00"/>
    <tag k="operator" v="Česká pošta, s.p."/>
    <tag k="ref" v="26107:100"/>
    <tag k="source" v="CP:201810"/>
  </node>
  <node id="5583044863" version="1" lat="49.5417669" lon="14.0857878" action="modify">
    <tag k="amenity" v="post_box"/>
    <tag k="collection_times" v="Mo-Fr 9:00"/>
    <tag k="operator" v="Česká pošta, s.p."/>
    <tag k="ref" v="26107:401"/>
    <tag k="source" v="CP:201810"/>
  </node>
  <node id="5584998881" version="1" lat="49.6524503" lon="13.9126126" action="modify">
    <tag k="amenity" v="post_box"/>
    <tag k="collection_times" v="Mo-Fr 9:00"/>
    <tag k="operator" v="Česká pošta, s.p."/>
    <tag k="ref" v="26107:164"/>
    <tag k="source" v="CP:201810"/>
  </node>
  <node id="5581151978" version="1" lat="49.6540937" lon="14.432668" action="modify">
    <tag k="amenity" v="post_box"/>
    <tag k="collection_times" v="Mo-Fr 9:00"/>
    <tag k="operator" v="Česká pošta, s.p."/>
    <tag k="ref" v="26107:177"/>
    <tag k="source" v="CP:201810"/>
  </node>
  <node id="5443028595" version="1" lat="49.7061024" lon="14.2981547" action="modify">
    <tag k="amenity" v="post_box"/>
    <tag k="collection_times" v="Mo-Fr 9:00"/>
    <tag k="operator" v="Česká pošta, s.p."/>
    <tag k="ref" v="26107:53"/>
    <tag k="source" v="CP:201810"/>
  </node>
  <node id="4699979927" version="2" lat="49.7860832" lon="14.1682363" action="modify">
    <tag k="amenity" v="post_box"/>
    <tag k="collection_times" v="Mo-Fr 9:00"/>
    <tag k="operator" v="Česká pošta, s.p."/>
    <tag k="ref" v="26107:26"/>
    <tag k="source" v="CP:201810"/>
  </node>
  <node id="5590944871" version="1" lat="49.8143952" lon="14.3222772" action="modify">
    <tag k="amenity" v="post_box"/>
    <tag k="collection_times" v="Mo-Fr 8:30"/>
    <tag k="operator" v="Česká pošta, s.p."/>
    <tag k="ref" v="26107:369"/>
    <tag k="source" v="CP:201810"/>
  </node>
  <node id="5590944875" version="1" lat="49.6076491" lon="14.4783633" action="modify">
    <tag k="amenity" v="post_box"/>
    <tag k="collection_times" v="Mo-Fr 9:00"/>
    <tag k="operator" v="Česká pošta, s.p."/>
    <tag k="ref" v="26107:405"/>
    <tag k="source" v="CP:201810"/>
  </node>
  <node id="5583044871" version="1" lat="49.6403041" lon="14.2562437" action="modify">
    <tag k="amenity" v="post_box"/>
    <tag k="collection_times" v="Mo-Fr 9:30"/>
    <tag k="operator" v="Česká pošta, s.p."/>
    <tag k="ref" v="26107:260"/>
    <tag k="source" v="CP:201810"/>
  </node>
  <node id="5584998884" version="1" lat="49.6741335" lon="13.9512779" action="modify">
    <tag k="amenity" v="post_box"/>
    <tag k="collection_times" v="Mo-Fr 8:00"/>
    <tag k="operator" v="Česká pošta, s.p."/>
    <tag k="ref" v="26107:165"/>
    <tag k="source" v="CP:201810"/>
  </node>
  <node id="5430066334" version="2" lat="49.7137749" lon="13.9806518" action="modify">
    <tag k="amenity" v="post_box"/>
    <tag k="collection_times" v="Mo-Fr 8:30"/>
    <tag k="operator" v="Česká pošta, s.p."/>
    <tag k="ref" v="26107:166"/>
    <tag k="source" v="CP:201810"/>
  </node>
  <node id="4699979928" version="2" lat="49.787875" lon="14.1663706" action="modify">
    <tag k="amenity" v="post_box"/>
    <tag k="collection_times" v="Mo-Fr 9:30"/>
    <tag k="operator" v="Česká pošta, s.p."/>
    <tag k="ref" v="26107:25"/>
    <tag k="source" v="CP:201810"/>
  </node>
  <node id="4843242718" version="2" lat="49.6343645" lon="13.9480671" action="modify">
    <tag k="amenity" v="post_box"/>
    <tag k="collection_times" v="Mo-Fr 9:00"/>
    <tag k="operator" v="Česká pošta, s.p."/>
    <tag k="ref" v="26107:120"/>
    <tag k="source" v="CP:201810"/>
  </node>
  <node id="5581151958" version="1" lat="49.6053436" lon="14.4389429" action="modify">
    <tag k="amenity" v="post_box"/>
    <tag k="collection_times" v="Mo-Fr 8:25"/>
    <tag k="operator" v="Česká pošta, s.p."/>
    <tag k="ref" v="26107:196"/>
    <tag k="source" v="CP:201810"/>
  </node>
  <node id="5584998863" version="1" lat="49.589362" lon="13.9127627" action="modify">
    <tag k="amenity" v="post_box"/>
    <tag k="collection_times" v="Mo-Fr 9:00"/>
    <tag k="operator" v="Česká pošta, s.p."/>
    <tag k="ref" v="26107:109"/>
    <tag k="source" v="CP:201810"/>
  </node>
  <node id="5583044832" version="1" lat="49.670676" lon="14.1569217" action="modify">
    <tag k="amenity" v="post_box"/>
    <tag k="collection_times" v="Mo-Fr 9:30"/>
    <tag k="operator" v="Česká pošta, s.p."/>
    <tag k="ref" v="26107:270"/>
    <tag k="source" v="CP:201810"/>
  </node>
  <node id="5586798023" version="1" lat="49.5586419" lon="13.9575811" action="modify">
    <tag k="amenity" v="post_box"/>
    <tag k="collection_times" v="Mo-Fr 8:30"/>
    <tag k="operator" v="Česká pošta, s.p."/>
    <tag k="ref" v="26107:66"/>
    <tag k="source" v="CP:201810"/>
  </node>
  <node id="5581151988" version="1" lat="49.7004809" lon="14.49562" action="modify">
    <tag k="amenity" v="post_box"/>
    <tag k="collection_times" v="Mo-Fr 8:40"/>
    <tag k="operator" v="Česká pošta, s.p."/>
    <tag k="ref" v="26107:207"/>
    <tag k="source" v="CP:201810"/>
  </node>
  <node id="5584998857" version="1" lat="49.6145201" lon="13.8253733" action="modify">
    <tag k="amenity" v="post_box"/>
    <tag k="collection_times" v="Mo-Fr 8:00"/>
    <tag k="operator" v="Česká pošta, s.p."/>
    <tag k="ref" v="26107:389"/>
    <tag k="source" v="CP:201810"/>
  </node>
  <node id="5583040819" version="1" lat="49.6444757" lon="14.0341225" action="modify">
    <tag k="amenity" v="post_box"/>
    <tag k="collection_times" v="Mo-Fr 8:00"/>
    <tag k="operator" v="Česká pošta, s.p."/>
    <tag k="ref" v="26107:248"/>
    <tag k="source" v="CP:201810"/>
  </node>
  <node id="5584998901" version="1" lat="49.7270567" lon="14.2473186" action="modify">
    <tag k="amenity" v="post_box"/>
    <tag k="collection_times" v="Mo-Fr 9:00"/>
    <tag k="operator" v="Česká pošta, s.p."/>
    <tag k="ref" v="26107:48"/>
    <tag k="source" v="CP:201810"/>
  </node>
  <node id="5584998870" version="1" lat="49.5948043" lon="13.9558901" action="modify">
    <tag k="amenity" v="post_box"/>
    <tag k="collection_times" v="Mo-Fr 8:00"/>
    <tag k="operator" v="Česká pošta, s.p."/>
    <tag k="ref" v="26107:82"/>
    <tag k="source" v="CP:201810"/>
  </node>
  <node id="5584998887" version="1" lat="49.6867761" lon="13.9616418" action="modify">
    <tag k="amenity" v="post_box"/>
    <tag k="collection_times" v="Mo-Fr 9:00"/>
    <tag k="operator" v="Česká pošta, s.p."/>
    <tag k="ref" v="26107:152"/>
    <tag k="source" v="CP:201810"/>
  </node>
  <node id="5584998864" version="1" lat="49.6070269" lon="13.9129586" action="modify">
    <tag k="amenity" v="post_box"/>
    <tag k="collection_times" v="Mo-Fr 9:00"/>
    <tag k="operator" v="Česká pošta, s.p."/>
    <tag k="ref" v="26107:117"/>
    <tag k="source" v="CP:201810"/>
  </node>
  <node id="5423510319" version="1" lat="49.7855525" lon="14.292365" action="modify">
    <tag k="amenity" v="post_box"/>
    <tag k="collection_times" v="Mo-Fr 9:00"/>
    <tag k="fixme" v="fixme"/>
    <tag k="operator" v="Česká pošta, s.p."/>
    <tag k="ref" v="26107:339"/>
    <tag k="source" v="CP:201810"/>
  </node>
  <node id="5584998895" version="1" lat="49.6730346" lon="14.0467468" action="modify">
    <tag k="amenity" v="post_box"/>
    <tag k="collection_times" v="Mo-Fr 8:00"/>
    <tag k="operator" v="Česká pošta, s.p."/>
    <tag k="ref" v="26107:145"/>
    <tag k="source" v="CP:201810"/>
  </node>
  <node id="5590985417" version="1" lat="49.5916581" lon="14.1281174" action="modify">
    <tag k="amenity" v="post_box"/>
    <tag k="collection_times" v="Mo-Fr 9:15"/>
    <tag k="operator" v="Česká pošta, s.p."/>
    <tag k="ref" v="26107:252"/>
    <tag k="source" v="CP:201810"/>
  </node>
  <node id="5581151975" version="1" lat="49.6582175" lon="14.4249575" action="modify">
    <tag k="amenity" v="post_box"/>
    <tag k="collection_times" v="Mo-Fr 9:00"/>
    <tag k="operator" v="Česká pošta, s.p."/>
    <tag k="ref" v="26107:174"/>
    <tag k="source" v="CP:201810"/>
  </node>
  <node id="5583040820" version="1" lat="49.6496289" lon="14.0335289" action="modify">
    <tag k="amenity" v="post_box"/>
    <tag k="collection_times" v="Mo-Fr 8:00"/>
    <tag k="operator" v="Česká pošta, s.p."/>
    <tag k="ref" v="26107:239"/>
    <tag k="source" v="CP:201810"/>
  </node>
  <node id="5581151982" version="1" lat="49.6066343" lon="14.4762618" action="modify">
    <tag k="amenity" v="post_box"/>
    <tag k="collection_times" v="Mo-Fr 9:05"/>
    <tag k="operator" v="Česká pošta, s.p."/>
    <tag k="ref" v="26107:198"/>
    <tag k="source" v="CP:201810"/>
  </node>
  <node id="5412267703" version="1" lat="49.7529615" lon="14.2038874" action="modify">
    <tag k="amenity" v="post_box"/>
    <tag k="collection_times" v="Mo-Fr 9:00"/>
    <tag k="operator" v="Česká pošta, s.p."/>
    <tag k="ref" v="26107:58"/>
    <tag k="source" v="CP:201810"/>
  </node>
  <node id="5589059127" version="1" lat="49.6948287" lon="14.4827589" action="modify">
    <tag k="amenity" v="post_box"/>
    <tag k="collection_times" v="Mo-Fr 9:00"/>
    <tag k="operator" v="Česká pošta, s.p."/>
    <tag k="ref" v="26107:208"/>
    <tag k="source" v="CP:201810"/>
  </node>
  <node id="5584998845" version="1" lat="49.5254077" lon="13.8413362" action="modify">
    <tag k="amenity" v="post_box"/>
    <tag k="collection_times" v="Mo-Fr 9:00"/>
    <tag k="operator" v="Česká pošta, s.p."/>
    <tag k="ref" v="26107:128"/>
    <tag k="source" v="CP:201810"/>
  </node>
  <node id="5584998866" version="1" lat="49.5955552" lon="13.9269733" action="modify">
    <tag k="amenity" v="post_box"/>
    <tag k="collection_times" v="Mo-Fr 9:00"/>
    <tag k="operator" v="Česká pošta, s.p."/>
    <tag k="ref" v="26107:115"/>
    <tag k="source" v="CP:201810"/>
  </node>
  <node id="5584998885" version="1" lat="49.6770953" lon="13.964228" action="modify">
    <tag k="amenity" v="post_box"/>
    <tag k="collection_times" v="Mo-Fr 8:30"/>
    <tag k="operator" v="Česká pošta, s.p."/>
    <tag k="ref" v="26107:150"/>
    <tag k="source" v="CP:201810"/>
  </node>
  <node id="5581151980" version="2" lat="49.6581105" lon="14.4794758" action="modify">
    <tag k="amenity" v="post_box"/>
    <tag k="collection_times" v="Mo-Fr 8:10"/>
    <tag k="operator" v="Česká pošta, s.p."/>
    <tag k="ref" v="26107:214"/>
    <tag k="source" v="CP:201810"/>
  </node>
  <node id="5423513128" version="1" lat="49.7348808" lon="14.2776234" action="modify">
    <tag k="amenity" v="post_box"/>
    <tag k="collection_times" v="Mo-Fr 8:00"/>
    <tag k="operator" v="Česká pošta, s.p."/>
    <tag k="ref" v="26107:381"/>
    <tag k="source" v="CP:201810"/>
  </node>
  <node id="5430066331" version="1" lat="49.7041484" lon="13.959268" action="modify">
    <tag k="amenity" v="post_box"/>
    <tag k="collection_times" v="Mo-Fr 9:15"/>
    <tag k="operator" v="Česká pošta, s.p."/>
    <tag k="ref" v="26107:154"/>
    <tag k="source" v="CP:201810"/>
  </node>
  <node id="5584998878" version="1" lat="49.6235391" lon="14.0032901" action="modify">
    <tag k="amenity" v="post_box"/>
    <tag k="collection_times" v="Mo-Fr 9:00"/>
    <tag k="operator" v="Česká pošta, s.p."/>
    <tag k="ref" v="26107:235"/>
    <tag k="source" v="CP:201810"/>
  </node>
  <node id="5423513126" version="1" lat="49.7548124" lon="14.3086358" action="modify">
    <tag k="amenity" v="post_box"/>
    <tag k="collection_times" v="Mo-Fr 9:40"/>
    <tag k="operator" v="Česká pošta, s.p."/>
    <tag k="ref" v="26107:341"/>
    <tag k="source" v="CP:201810"/>
  </node>
  <node id="5583044860" version="1" lat="49.5659853" lon="14.1132591" action="modify">
    <tag k="amenity" v="post_box"/>
    <tag k="collection_times" v="Mo-Fr 9:00"/>
    <tag k="operator" v="Česká pošta, s.p."/>
    <tag k="ref" v="26107:95"/>
    <tag k="source" v="CP:201810"/>
  </node>
  <node id="5590944872" version="1" lat="49.8105047" lon="14.3197962" action="modify">
    <tag k="amenity" v="post_box"/>
    <tag k="collection_times" v="Mo-Fr 9:00"/>
    <tag k="operator" v="Česká pošta, s.p."/>
    <tag k="ref" v="26107:370"/>
    <tag k="source" v="CP:201810"/>
  </node>
  <node id="5586797311" version="1" lat="49.6900909" lon="14.0093047" action="modify">
    <tag k="amenity" v="post_box"/>
    <tag k="collection_times" v="Mo-Fr 8:00"/>
    <tag k="operator" v="Česká pošta, s.p."/>
    <tag k="ref" v="26107:133"/>
    <tag k="source" v="CP:201810"/>
  </node>
  <node id="5584998900" version="1" lat="49.7287442" lon="14.2434209" action="modify">
    <tag k="amenity" v="post_box"/>
    <tag k="collection_times" v="Mo-Fr 9:00"/>
    <tag k="operator" v="Česká pošta, s.p."/>
    <tag k="ref" v="26107:47"/>
    <tag k="source" v="CP:201810"/>
  </node>
  <node id="5583044841" version="1" lat="49.5925027" lon="14.0877787" action="modify">
    <tag k="amenity" v="post_box"/>
    <tag k="collection_times" v="Mo-Fr 9:00"/>
    <tag k="operator" v="Česká pošta, s.p."/>
    <tag k="ref" v="26107:254"/>
    <tag k="source" v="CP:201810"/>
  </node>
  <node id="5583044835" version="1" lat="49.6558996" lon="14.2217305" action="modify">
    <tag k="amenity" v="post_box"/>
    <tag k="collection_times" v="Mo-Fr 9:00"/>
    <tag k="operator" v="Česká pošta, s.p."/>
    <tag k="ref" v="26107:272"/>
    <tag k="source" v="CP:201810"/>
  </node>
  <node id="5415306332" version="1" lat="49.7567911" lon="14.1090238" action="modify">
    <tag k="amenity" v="post_box"/>
    <tag k="collection_times" v="Mo-Fr 9:00"/>
    <tag k="operator" v="Česká pošta, s.p."/>
    <tag k="ref" v="26107:377"/>
    <tag k="source" v="CP:201810"/>
  </node>
  <node id="5443028597" version="2" lat="49.7042092" lon="14.2489308" action="modify">
    <tag k="amenity" v="post_box"/>
    <tag k="collection_times" v="Mo-Fr 9:00"/>
    <tag k="operator" v="Česká pošta, s.p."/>
    <tag k="ref" v="26107:45"/>
    <tag k="source" v="CP:201810"/>
  </node>
  <node id="5581151963" version="1" lat="49.6539489" lon="14.3835294" action="modify">
    <tag k="amenity" v="post_box"/>
    <tag k="collection_times" v="Mo-Fr 8:10"/>
    <tag k="operator" v="Česká pošta, s.p."/>
    <tag k="ref" v="26107:220"/>
    <tag k="source" v="CP:201810"/>
  </node>
  <node id="5586797301" version="1" lat="49.8092411" lon="13.9692509" action="modify">
    <tag k="amenity" v="post_box"/>
    <tag k="collection_times" v="Mo-Fr 9:30"/>
    <tag k="operator" v="Česká pošta, s.p."/>
    <tag k="ref" v="26107:331"/>
    <tag k="source" v="CP:201810"/>
  </node>
  <node id="5590986822" version="1" lat="49.6135214" lon="14.1946105" action="modify">
    <tag k="amenity" v="post_box"/>
    <tag k="collection_times" v="Mo-Fr 9:00"/>
    <tag k="operator" v="Česká pošta, s.p."/>
    <tag k="ref" v="26107:276"/>
    <tag k="source" v="CP:201810"/>
  </node>
  <node id="5583044821" version="1" lat="49.6619911" lon="14.0357367" action="modify">
    <tag k="amenity" v="post_box"/>
    <tag k="collection_times" v="Mo-Fr 8:00"/>
    <tag k="operator" v="Česká pošta, s.p."/>
    <tag k="ref" v="26107:146"/>
    <tag k="source" v="CP:201810"/>
  </node>
  <node id="5583044861" version="1" lat="49.5583266" lon="14.1089541" action="modify">
    <tag k="amenity" v="post_box"/>
    <tag k="collection_times" v="Mo-Fr 9:00"/>
    <tag k="operator" v="Česká pošta, s.p."/>
    <tag k="ref" v="26107:98"/>
    <tag k="source" v="CP:201810"/>
  </node>
  <node id="5430066339" version="1" lat="49.7311495" lon="14.0183746" action="modify">
    <tag k="amenity" v="post_box"/>
    <tag k="collection_times" v="Mo-Fr 8:00"/>
    <tag k="fixme" v="fixme"/>
    <tag k="operator" v="Česká pošta, s.p."/>
    <tag k="ref" v="26107:137"/>
    <tag k="source" v="CP:201810"/>
  </node>
  <node id="5584998886" version="1" lat="49.6872134" lon="13.9482742" action="modify">
    <tag k="amenity" v="post_box"/>
    <tag k="collection_times" v="Mo-Fr 9:00"/>
    <tag k="operator" v="Česká pošta, s.p."/>
    <tag k="ref" v="26107:151"/>
    <tag k="source" v="CP:201810"/>
  </node>
  <node id="5415306328" version="1" lat="49.7127547" lon="14.065595" action="modify">
    <tag k="amenity" v="post_box"/>
    <tag k="collection_times" v="Mo-Fr 8:45"/>
    <tag k="operator" v="Česká pošta, s.p."/>
    <tag k="ref" v="26107:138"/>
    <tag k="source" v="CP:201810"/>
  </node>
  <node id="5584998860" version="1" lat="49.6217148" lon="13.8807882" action="modify">
    <tag k="amenity" v="post_box"/>
    <tag k="collection_times" v="Mo-Fr 8:00"/>
    <tag k="operator" v="Česká pošta, s.p."/>
    <tag k="ref" v="26107:114"/>
    <tag k="source" v="CP:201810"/>
  </node>
  <node id="5584998855" version="1" lat="49.5779804" lon="13.8779689" action="modify">
    <tag k="amenity" v="post_box"/>
    <tag k="collection_times" v="Mo-Fr 8:00"/>
    <tag k="operator" v="Česká pošta, s.p."/>
    <tag k="ref" v="26107:113"/>
    <tag k="source" v="CP:201810"/>
  </node>
  <node id="5586798025" version="1" lat="49.5406696" lon="13.9581243" action="modify">
    <tag k="amenity" v="post_box"/>
    <tag k="collection_times" v="Mo-Fr 8:30"/>
    <tag k="operator" v="Česká pošta, s.p."/>
    <tag k="ref" v="26107:70"/>
    <tag k="source" v="CP:201810"/>
  </node>
  <node id="5590944867" version="1" lat="49.5770026" lon="14.3457787" action="modify">
    <tag k="amenity" v="post_box"/>
    <tag k="collection_times" v="Mo-Fr 9:30"/>
    <tag k="operator" v="Česká pošta, s.p."/>
    <tag k="ref" v="26107:311"/>
    <tag k="source" v="CP:201810"/>
  </node>
  <node id="5423510317" version="2" lat="49.7753955" lon="14.2672449" action="modify">
    <tag k="amenity" v="post_box"/>
    <tag k="collection_times" v="Mo-Fr 9:00"/>
    <tag k="operator" v="Česká pošta, s.p."/>
    <tag k="ref" v="26107:352"/>
    <tag k="source" v="CP:201810"/>
  </node>
  <node id="5415306339" version="2" lat="49.8172253" lon="14.2168088" action="modify">
    <tag k="amenity" v="post_box"/>
    <tag k="collection_times" v="Mo-Fr 9:00"/>
    <tag k="operator" v="Česká pošta, s.p."/>
    <tag k="ref" v="26107:31"/>
    <tag k="source" v="CP:201810"/>
  </node>
  <node id="5589059129" version="1" lat="49.6604426" lon="14.4199571" action="modify">
    <tag k="amenity" v="post_box"/>
    <tag k="collection_times" v="Mo-Fr 9:00"/>
    <tag k="operator" v="Česká pošta, s.p."/>
    <tag k="ref" v="26107:172"/>
    <tag k="source" v="CP:201810"/>
  </node>
  <node id="5415306331" version="2" lat="49.757302" lon="14.0965146" action="modify">
    <tag k="amenity" v="post_box"/>
    <tag k="collection_times" v="Mo-Fr 8:30"/>
    <tag k="operator" v="Česká pošta, s.p."/>
    <tag k="ref" v="26107:36"/>
    <tag k="source" v="CP:201810"/>
  </node>
  <node id="5584998843" version="1" lat="49.515484" lon="13.8213839" action="modify">
    <tag k="amenity" v="post_box"/>
    <tag k="collection_times" v="Mo-Fr 9:00"/>
    <tag k="operator" v="Česká pošta, s.p."/>
    <tag k="ref" v="26107:127"/>
    <tag k="source" v="CP:201810"/>
  </node>
  <node id="5590985416" version="1" lat="49.6209542" lon="14.085682" action="modify">
    <tag k="amenity" v="post_box"/>
    <tag k="collection_times" v="Mo-Fr 9:00"/>
    <tag k="operator" v="Česká pošta, s.p."/>
    <tag k="ref" v="26107:243"/>
    <tag k="source" v="CP:201810"/>
  </node>
  <node id="4699979924" version="2" lat="49.7862335" lon="14.1781127" action="modify">
    <tag k="amenity" v="post_box"/>
    <tag k="collection_times" v="Mo-Fr 9:00"/>
    <tag k="operator" v="Česká pošta, s.p."/>
    <tag k="ref" v="26107:29"/>
    <tag k="source" v="CP:201810"/>
  </node>
  <node id="5423513127" version="1" lat="49.7451502" lon="14.2958654" action="modify">
    <tag k="amenity" v="post_box"/>
    <tag k="collection_times" v="Mo-Fr 9:00"/>
    <tag k="operator" v="Česká pošta, s.p."/>
    <tag k="ref" v="26107:357"/>
    <tag k="source" v="CP:201810"/>
  </node>
  <node id="5586797319" version="1" lat="49.5589479" lon="13.9472683" action="modify">
    <tag k="amenity" v="post_box"/>
    <tag k="collection_times" v="Mo-Fr 9:00"/>
    <tag k="operator" v="Česká pošta, s.p."/>
    <tag k="ref" v="26107:63"/>
    <tag k="source" v="CP:201810"/>
  </node>
  <node id="5584998868" version="1" lat="49.5754267" lon="13.9393759" action="modify">
    <tag k="amenity" v="post_box"/>
    <tag k="collection_times" v="Mo-Fr 9:00"/>
    <tag k="operator" v="Česká pošta, s.p."/>
    <tag k="ref" v="26107:73"/>
    <tag k="source" v="CP:201810"/>
  </node>
  <node id="5586797302" version="1" lat="49.7999196" lon="13.9459769" action="modify">
    <tag k="amenity" v="post_box"/>
    <tag k="collection_times" v="Mo-Fr 9:00"/>
    <tag k="operator" v="Česká pošta, s.p."/>
    <tag k="ref" v="26107:330"/>
    <tag k="source" v="CP:201810"/>
  </node>
  <node id="5584998871" version="1" lat="49.5842951" lon="13.9845706" action="modify">
    <tag k="amenity" v="post_box"/>
    <tag k="collection_times" v="Mo-Fr 8:30"/>
    <tag k="operator" v="Česká pošta, s.p."/>
    <tag k="ref" v="26107:84"/>
    <tag k="source" v="CP:201810"/>
  </node>
  <node id="5583044862" version="1" lat="49.5558158" lon="14.1070611" action="modify">
    <tag k="amenity" v="post_box"/>
    <tag k="collection_times" v="Mo-Fr 9:00"/>
    <tag k="operator" v="Česká pošta, s.p."/>
    <tag k="ref" v="26107:99"/>
    <tag k="source" v="CP:201810"/>
  </node>
  <node id="5423513134" version="2" lat="49.7024178" lon="14.1181104" action="modify">
    <tag k="amenity" v="post_box"/>
    <tag k="collection_times" v="Mo-Fr 9:30"/>
    <tag k="operator" v="Česká pošta, s.p."/>
    <tag k="ref" v="26107:141"/>
    <tag k="source" v="CP:201810"/>
  </node>
  <node id="5581151960" version="1" lat="49.6245972" lon="14.438834" action="modify">
    <tag k="amenity" v="post_box"/>
    <tag k="collection_times" v="Mo-Fr 8:10"/>
    <tag k="operator" v="Česká pošta, s.p."/>
    <tag k="ref" v="26107:195"/>
    <tag k="source" v="CP:201810"/>
  </node>
  <node id="5583044842" version="1" lat="49.6163739" lon="14.067552" action="modify">
    <tag k="amenity" v="post_box"/>
    <tag k="collection_times" v="Mo-Fr 8:00"/>
    <tag k="operator" v="Česká pošta, s.p."/>
    <tag k="ref" v="26107:247"/>
    <tag k="source" v="CP:201810"/>
  </node>
  <node id="5583044834" version="1" lat="49.6592631" lon="14.1960158" action="modify">
    <tag k="amenity" v="post_box"/>
    <tag k="collection_times" v="Mo-Fr 8:30"/>
    <tag k="operator" v="Česká pošta, s.p."/>
    <tag k="ref" v="26107:271"/>
    <tag k="source" v="CP:201810"/>
  </node>
  <node id="900312804" version="4" lat="49.6761885" lon="14.3198724" action="modify">
    <tag k="amenity" v="post_box"/>
    <tag k="collection_times" v="Mo-Fr 9:00"/>
    <tag k="operator" v="Česká pošta, s.p."/>
    <tag k="ref" v="26107:225"/>
    <tag k="source" v="CP:201810"/>
  </node>
  <node id="5583044870" version="1" lat="49.595106" lon="14.2345936" action="modify">
    <tag k="amenity" v="post_box"/>
    <tag k="collection_times" v="Mo-Fr 9:00"/>
    <tag k="operator" v="Česká pošta, s.p."/>
    <tag k="ref" v="26107:284"/>
    <tag k="source" v="CP:201810"/>
  </node>
  <node id="5581151953" version="1" lat="49.590956" lon="14.3954161" action="modify">
    <tag k="amenity" v="post_box"/>
    <tag k="collection_times" v="Mo-Fr 9:05"/>
    <tag k="operator" v="Česká pošta, s.p."/>
    <tag k="ref" v="26107:310"/>
    <tag k="source" v="CP:201810"/>
  </node>
  <node id="5583044845" version="1" lat="49.6098778" lon="14.0419213" action="modify">
    <tag k="amenity" v="post_box"/>
    <tag k="collection_times" v="Mo-Fr 8:30"/>
    <tag k="operator" v="Česká pošta, s.p."/>
    <tag k="ref" v="26107:245"/>
    <tag k="source" v="CP:201810"/>
  </node>
  <node id="5581151965" version="1" lat="49.6657791" lon="14.3236044" action="modify">
    <tag k="amenity" v="post_box"/>
    <tag k="collection_times" v="Mo-Fr 8:50"/>
    <tag k="operator" v="Česká pošta, s.p."/>
    <tag k="ref" v="26107:224"/>
    <tag k="source" v="CP:201810"/>
  </node>
  <node id="5583044859" version="1" lat="49.5716634" lon="14.1152611" action="modify">
    <tag k="amenity" v="post_box"/>
    <tag k="collection_times" v="Mo-Fr 9:00"/>
    <tag k="operator" v="Česká pošta, s.p."/>
    <tag k="ref" v="26107:94"/>
    <tag k="source" v="CP:201810"/>
  </node>
  <node id="5583044857" version="1" lat="49.5718301" lon="14.0806545" action="modify">
    <tag k="amenity" v="post_box"/>
    <tag k="collection_times" v="Mo-Fr 9:00"/>
    <tag k="operator" v="Česká pošta, s.p."/>
    <tag k="ref" v="26107:92"/>
    <tag k="source" v="CP:201810"/>
  </node>
  <node id="5430066326" version="1" lat="49.7074049" lon="14.1108421" action="modify">
    <tag k="amenity" v="post_box"/>
    <tag k="collection_times" v="Mo-Fr 9:30"/>
    <tag k="fixme" v="fixme"/>
    <tag k="operator" v="Česká pošta, s.p."/>
    <tag k="ref" v="26107:143"/>
    <tag k="source" v="CP:201810"/>
  </node>
  <node id="5430066330" version="1" lat="49.7025822" lon="13.9786961" action="modify">
    <tag k="amenity" v="post_box"/>
    <tag k="collection_times" v="Mo-Fr 9:30"/>
    <tag k="operator" v="Česká pošta, s.p."/>
    <tag k="ref" v="26107:153"/>
    <tag k="source" v="CP:201810"/>
  </node>
  <node id="5590985418" version="1" lat="49.6385104" lon="14.2089372" action="modify">
    <tag k="amenity" v="post_box"/>
    <tag k="collection_times" v="Mo-Fr 8:00"/>
    <tag k="operator" v="Česká pošta, s.p."/>
    <tag k="ref" v="26107:261"/>
    <tag k="source" v="CP:201810"/>
  </node>
  <node id="5581151954" version="1" lat="49.6022034" lon="14.4046698" action="modify">
    <tag k="amenity" v="post_box"/>
    <tag k="collection_times" v="Mo-Fr 8:00"/>
    <tag k="operator" v="Česká pošta, s.p."/>
    <tag k="ref" v="26107:179"/>
    <tag k="source" v="CP:201810"/>
  </node>
  <node id="5584998873" version="1" lat="49.6109509" lon="14.0147727" action="modify">
    <tag k="amenity" v="post_box"/>
    <tag k="collection_times" v="Mo-Fr 9:00"/>
    <tag k="operator" v="Česká pošta, s.p."/>
    <tag k="ref" v="26107:85"/>
    <tag k="source" v="CP:201810"/>
  </node>
  <node id="5583044843" version="1" lat="49.6076816" lon="14.0677237" action="modify">
    <tag k="amenity" v="post_box"/>
    <tag k="collection_times" v="Mo-Fr 9:00"/>
    <tag k="operator" v="Česká pošta, s.p."/>
    <tag k="ref" v="26107:255"/>
    <tag k="source" v="CP:201810"/>
  </node>
  <node id="5581151957" version="1" lat="49.6267404" lon="14.4248892" action="modify">
    <tag k="amenity" v="post_box"/>
    <tag k="collection_times" v="Mo-Fr 8:00"/>
    <tag k="operator" v="Česká pošta, s.p."/>
    <tag k="ref" v="26107:193"/>
    <tag k="source" v="CP:201810"/>
  </node>
  <node id="5583044846" version="1" lat="49.5992324" lon="14.0492815" action="modify">
    <tag k="amenity" v="post_box"/>
    <tag k="collection_times" v="Mo-Fr 9:00"/>
    <tag k="operator" v="Česká pošta, s.p."/>
    <tag k="ref" v="26107:246"/>
    <tag k="source" v="CP:201810"/>
  </node>
  <node id="5584998874" version="1" lat="49.6180234" lon="13.9575879" action="modify">
    <tag k="amenity" v="post_box"/>
    <tag k="collection_times" v="Mo-Fr 9:00"/>
    <tag k="operator" v="Česká pošta, s.p."/>
    <tag k="ref" v="26107:121"/>
    <tag k="source" v="CP:201810"/>
  </node>
  <node id="5583044865" version="1" lat="49.5580119" lon="14.2018304" action="modify">
    <tag k="amenity" v="post_box"/>
    <tag k="collection_times" v="Mo-Fr 8:50"/>
    <tag k="operator" v="Česká pošta, s.p."/>
    <tag k="ref" v="26107:278"/>
    <tag k="source" v="CP:201810"/>
  </node>
  <node id="5583044823" version="1" lat="49.6468743" lon="14.0970045" action="modify">
    <tag k="amenity" v="post_box"/>
    <tag k="collection_times" v="Mo-Fr 9:00"/>
    <tag k="operator" v="Česká pošta, s.p."/>
    <tag k="ref" v="26107:241"/>
    <tag k="source" v="CP:201810"/>
  </node>
  <node id="4699979926" version="2" lat="49.7845627" lon="14.1676194" action="modify">
    <tag k="amenity" v="post_box"/>
    <tag k="collection_times" v="Mo-Fr 9:00"/>
    <tag k="operator" v="Česká pošta, s.p."/>
    <tag k="ref" v="26107:24"/>
    <tag k="source" v="CP:201810"/>
  </node>
  <node id="5584998865" version="1" lat="49.6023291" lon="13.9242047" action="modify">
    <tag k="amenity" v="post_box"/>
    <tag k="collection_times" v="Mo-Fr 9:00"/>
    <tag k="operator" v="Česká pošta, s.p."/>
    <tag k="ref" v="26107:118"/>
    <tag k="source" v="CP:201810"/>
  </node>
  <node id="5583044867" version="1" lat="49.5734103" lon="14.2113176" action="modify">
    <tag k="amenity" v="post_box"/>
    <tag k="collection_times" v="Mo-Fr 9:30"/>
    <tag k="operator" v="Česká pošta, s.p."/>
    <tag k="ref" v="26107:280"/>
    <tag k="source" v="CP:201810"/>
  </node>
  <node id="5423510316" version="1" lat="49.7672264" lon="14.2642902" action="modify">
    <tag k="amenity" v="post_box"/>
    <tag k="collection_times" v="Mo-Fr 9:00"/>
    <tag k="operator" v="Česká pošta, s.p."/>
    <tag k="ref" v="26107:354"/>
    <tag k="source" v="CP:201810"/>
  </node>
  <node id="5584998858" version="1" lat="49.6276373" lon="13.8230699" action="modify">
    <tag k="amenity" v="post_box"/>
    <tag k="collection_times" v="Mo-Fr 8:00"/>
    <tag k="operator" v="Česká pošta, s.p."/>
    <tag k="ref" v="26107:122"/>
    <tag k="source" v="CP:201810"/>
  </node>
  <node id="5584998851" version="1" lat="49.5595478" lon="13.9227579" action="modify">
    <tag k="amenity" v="post_box"/>
    <tag k="collection_times" v="Mo-Fr 9:30"/>
    <tag k="operator" v="Česká pošta, s.p."/>
    <tag k="ref" v="26107:74"/>
    <tag k="source" v="CP:201810"/>
  </node>
  <node id="5415306333" version="1" lat="49.7565468" lon="14.1553382" action="modify">
    <tag k="amenity" v="post_box"/>
    <tag k="collection_times" v="Mo-Fr 8:30"/>
    <tag k="operator" v="Česká pošta, s.p."/>
    <tag k="ref" v="26107:43"/>
    <tag k="source" v="CP:201810"/>
  </node>
  <node id="5583044826" version="1" lat="49.6165014" lon="14.1047097" action="modify">
    <tag k="amenity" v="post_box"/>
    <tag k="collection_times" v="Mo-Fr 9:00"/>
    <tag k="operator" v="Česká pošta, s.p."/>
    <tag k="ref" v="26107:256"/>
    <tag k="source" v="CP:201810"/>
  </node>
  <node id="5584998883" version="1" lat="49.6487496" lon="13.9706644" action="modify">
    <tag k="amenity" v="post_box"/>
    <tag k="collection_times" v="Mo-Fr 8:00"/>
    <tag k="operator" v="Česká pošta, s.p."/>
    <tag k="ref" v="26107:147"/>
    <tag k="source" v="CP:201810"/>
  </node>
  <node id="5584998867" version="1" lat="49.581488" lon="13.9393044" action="modify">
    <tag k="amenity" v="post_box"/>
    <tag k="collection_times" v="Mo-Fr 9:00"/>
    <tag k="operator" v="Česká pošta, s.p."/>
    <tag k="ref" v="26107:72"/>
    <tag k="source" v="CP:201810"/>
  </node>
  <node id="5583044849" version="1" lat="49.5562225" lon="13.9873158" action="modify">
    <tag k="amenity" v="post_box"/>
    <tag k="collection_times" v="Mo-Fr 9:00"/>
    <tag k="operator" v="Česká pošta, s.p."/>
    <tag k="ref" v="26107:68"/>
    <tag k="source" v="CP:201810"/>
  </node>
  <node id="5583044838" version="1" lat="49.6022408" lon="14.1380455" action="modify">
    <tag k="amenity" v="post_box"/>
    <tag k="collection_times" v="Mo-Fr 9:00"/>
    <tag k="operator" v="Česká pošta, s.p."/>
    <tag k="ref" v="26107:250"/>
    <tag k="source" v="CP:201810"/>
  </node>
  <node id="4843232644" version="2" lat="49.6351566" lon="13.9429067" action="modify">
    <tag k="amenity" v="post_box"/>
    <tag k="collection_times" v="Mo-Fr 9:00"/>
    <tag k="operator" v="Česká pošta, s.p."/>
    <tag k="ref" v="26107:119"/>
    <tag k="source" v="CP:201810"/>
  </node>
  <node id="5455228657" version="1" lat="49.8334837" lon="14.3075656" action="modify">
    <tag k="amenity" v="post_box"/>
    <tag k="collection_times" v="Mo-Fr 9:00"/>
    <tag k="operator" v="Česká pošta, s.p."/>
    <tag k="ref" v="26107:356"/>
    <tag k="source" v="CP:201810"/>
  </node>
  <node id="5584998846" version="1" lat="49.544269" lon="13.8368369" action="modify">
    <tag k="amenity" v="post_box"/>
    <tag k="collection_times" v="Mo-Fr 9:00"/>
    <tag k="operator" v="Česká pošta, s.p."/>
    <tag k="ref" v="26107:129"/>
    <tag k="source" v="CP:201810"/>
  </node>
  <node id="5586797315" version="1" lat="49.5491936" lon="13.794827" action="modify">
    <tag k="amenity" v="post_box"/>
    <tag k="collection_times" v="Mo-Fr 9:00"/>
    <tag k="operator" v="Česká pošta, s.p."/>
    <tag k="ref" v="26107:123"/>
    <tag k="source" v="CP:201810"/>
  </node>
  <node id="5583044836" version="1" lat="49.6601104" lon="14.2520701" action="modify">
    <tag k="amenity" v="post_box"/>
    <tag k="collection_times" v="Mo-Fr 9:15"/>
    <tag k="operator" v="Česká pošta, s.p."/>
    <tag k="ref" v="26107:273"/>
    <tag k="source" v="CP:201810"/>
  </node>
  <node id="5590944866" version="1" lat="49.5879638" lon="14.3622327" action="modify">
    <tag k="amenity" v="post_box"/>
    <tag k="collection_times" v="Mo-Fr 9:00"/>
    <tag k="operator" v="Česká pošta, s.p."/>
    <tag k="ref" v="26107:309"/>
    <tag k="source" v="CP:201810"/>
  </node>
  <node id="5423510315" version="1" lat="49.7651794" lon="14.2753002" action="modify">
    <tag k="amenity" v="post_box"/>
    <tag k="collection_times" v="Mo-Fr 9:00"/>
    <tag k="operator" v="Česká pošta, s.p."/>
    <tag k="ref" v="26107:353"/>
    <tag k="source" v="CP:201810"/>
  </node>
  <node id="5586798022" version="1" lat="49.5599985" lon="13.9538964" action="modify">
    <tag k="amenity" v="post_box"/>
    <tag k="collection_times" v="Mo-Fr 9:00"/>
    <tag k="operator" v="Česká pošta, s.p."/>
    <tag k="ref" v="26107:64"/>
    <tag k="source" v="CP:201810"/>
  </node>
  <node id="5586797316" version="1" lat="49.5192563" lon="13.7783379" action="modify">
    <tag k="amenity" v="post_box"/>
    <tag k="collection_times" v="Mo-Fr 9:00"/>
    <tag k="operator" v="Česká pošta, s.p."/>
    <tag k="ref" v="26107:125"/>
    <tag k="source" v="CP:201810"/>
  </node>
  <node id="5581151994" version="1" lat="49.7782539" lon="14.3769521" action="modify">
    <tag k="amenity" v="post_box"/>
    <tag k="collection_times" v="Mo-Fr 8:00"/>
    <tag k="operator" v="Česká pošta, s.p."/>
    <tag k="ref" v="26107:364"/>
    <tag k="source" v="CP:201810"/>
  </node>
  <node id="5584998899" version="1" lat="49.7285271" lon="14.2329472" action="modify">
    <tag k="amenity" v="post_box"/>
    <tag k="collection_times" v="Mo-Fr 9:00"/>
    <tag k="operator" v="Česká pošta, s.p."/>
    <tag k="ref" v="26107:46"/>
    <tag k="source" v="CP:201810"/>
  </node>
  <node id="5583044839" version="1" lat="49.6000862" lon="14.1210916" action="modify">
    <tag k="amenity" v="post_box"/>
    <tag k="collection_times" v="Mo-Fr 9:00"/>
    <tag k="operator" v="Česká pošta, s.p."/>
    <tag k="ref" v="26107:253"/>
    <tag k="source" v="CP:201810"/>
  </node>
  <node id="5625244401" version="1" lat="49.7265508" lon="14.2923494" action="modify">
    <tag k="amenity" v="post_box"/>
    <tag k="collection_times" v="Mo-Fr 8:30"/>
    <tag k="operator" v="Česká pošta, s.p."/>
    <tag k="ref" v="26107:54"/>
    <tag k="source" v="CP:201810"/>
  </node>
  <node id="5583044889" version="1" lat="49.5668566" lon="14.4076394" action="modify">
    <tag k="amenity" v="post_box"/>
    <tag k="collection_times" v="Mo-Fr 8:50"/>
    <tag k="operator" v="Česká pošta, s.p."/>
    <tag k="ref" v="26107:182"/>
    <tag k="source" v="CP:201810"/>
  </node>
  <node id="5590985415" version="1" lat="49.6402055" lon="14.0781708" action="modify">
    <tag k="amenity" v="post_box"/>
    <tag k="collection_times" v="Mo-Fr 9:00"/>
    <tag k="operator" v="Česká pošta, s.p."/>
    <tag k="ref" v="26107:240"/>
    <tag k="source" v="CP:201810"/>
  </node>
  <node id="5581151987" version="1" lat="49.6892626" lon="14.4832968" action="modify">
    <tag k="amenity" v="post_box"/>
    <tag k="collection_times" v="Mo-Fr 9:30"/>
    <tag k="operator" v="Česká pošta, s.p."/>
    <tag k="ref" v="26107:209"/>
    <tag k="source" v="CP:201810"/>
  </node>
  <node id="5443028596" version="2" lat="49.6956748" lon="14.2649003" action="modify">
    <tag k="amenity" v="post_box"/>
    <tag k="collection_times" v="Mo-Fr 9:00"/>
    <tag k="operator" v="Česká pošta, s.p."/>
    <tag k="ref" v="26107:56"/>
    <tag k="source" v="CP:201810"/>
  </node>
  <node id="5586798028" version="1" lat="49.6324091" lon="14.0459764" action="modify">
    <tag k="amenity" v="post_box"/>
    <tag k="collection_times" v="Mo-Fr 9:00"/>
    <tag k="operator" v="Česká pošta, s.p."/>
    <tag k="ref" v="26107:234"/>
    <tag k="source" v="CP:201810"/>
  </node>
  <node id="5430066328" version="1" lat="49.6959685" lon="14.0805266" action="modify">
    <tag k="amenity" v="post_box"/>
    <tag k="collection_times" v="Mo-Fr 9:00"/>
    <tag k="operator" v="Česká pošta, s.p."/>
    <tag k="ref" v="26107:144"/>
    <tag k="source" v="CP:201810"/>
  </node>
  <node id="5584998861" version="1" lat="49.6125584" lon="13.8860783" action="modify">
    <tag k="amenity" v="post_box"/>
    <tag k="collection_times" v="Mo-Fr 8:30"/>
    <tag k="operator" v="Česká pošta, s.p."/>
    <tag k="ref" v="26107:107"/>
    <tag k="source" v="CP:201810"/>
  </node>
  <node id="5415306334" version="1" lat="49.7505585" lon="14.1696921" action="modify">
    <tag k="amenity" v="post_box"/>
    <tag k="collection_times" v="Mo-Fr 9:00"/>
    <tag k="operator" v="Česká pošta, s.p."/>
    <tag k="ref" v="26107:42"/>
    <tag k="source" v="CP:201810"/>
  </node>
  <node id="5430066332" version="1" lat="49.7032526" lon="13.9492353" action="modify">
    <tag k="amenity" v="post_box"/>
    <tag k="collection_times" v="Mo-Fr 9:30"/>
    <tag k="operator" v="Česká pošta, s.p."/>
    <tag k="ref" v="26107:155"/>
    <tag k="source" v="CP:201810"/>
  </node>
  <node id="5583040818" version="1" lat="49.6472611" lon="14.0212588" action="modify">
    <tag k="amenity" v="post_box"/>
    <tag k="collection_times" v="Mo-Fr 8:00"/>
    <tag k="operator" v="Česká pošta, s.p."/>
    <tag k="ref" v="26107:249"/>
    <tag k="source" v="CP:201810"/>
  </node>
  <node id="5583044844" version="1" lat="49.6108516" lon="14.0509534" action="modify">
    <tag k="amenity" v="post_box"/>
    <tag k="collection_times" v="Mo-Fr 8:30"/>
    <tag k="operator" v="Česká pošta, s.p."/>
    <tag k="ref" v="26107:244"/>
    <tag k="source" v="CP:201810"/>
  </node>
  <node id="5586798026" version="1" lat="49.5382867" lon="13.982213" action="modify">
    <tag k="amenity" v="post_box"/>
    <tag k="collection_times" v="Mo-Fr 9:00"/>
    <tag k="operator" v="Česká pošta, s.p."/>
    <tag k="ref" v="26107:71"/>
    <tag k="source" v="CP:201810"/>
  </node>
  <node id="5423510318" version="1" lat="49.786863" lon="14.3079023" action="modify">
    <tag k="amenity" v="post_box"/>
    <tag k="collection_times" v="Mo-Fr 9:00"/>
    <tag k="operator" v="Česká pošta, s.p."/>
    <tag k="ref" v="26107:340"/>
    <tag k="source" v="CP:201810"/>
  </node>
  <node id="5583044888" version="1" lat="49.572286" lon="14.4028146" action="modify">
    <tag k="amenity" v="post_box"/>
    <tag k="collection_times" v="Mo-Fr 8:40"/>
    <tag k="operator" v="Česká pošta, s.p."/>
    <tag k="ref" v="26107:181"/>
    <tag k="source" v="CP:201810"/>
  </node>
  <node id="5581151986" version="1" lat="49.6770204" lon="14.4884385" action="modify">
    <tag k="amenity" v="post_box"/>
    <tag k="collection_times" v="Mo-Fr 9:40"/>
    <tag k="operator" v="Česká pošta, s.p."/>
    <tag k="ref" v="26107:210"/>
    <tag k="source" v="CP:201810"/>
  </node>
  <node id="5584998856" version="1" lat="49.5940577" lon="13.8124447" action="modify">
    <tag k="amenity" v="post_box"/>
    <tag k="collection_times" v="Mo-Fr 9:00"/>
    <tag k="operator" v="Česká pošta, s.p."/>
    <tag k="ref" v="26107:112"/>
    <tag k="source" v="CP:201810"/>
  </node>
  <node id="5430066327" version="1" lat="49.7035579" lon="14.1039365" action="modify">
    <tag k="amenity" v="post_box"/>
    <tag k="collection_times" v="Mo-Fr 9:00"/>
    <tag k="fixme" v="fixme"/>
    <tag k="operator" v="Česká pošta, s.p."/>
    <tag k="ref" v="26107:142"/>
    <tag k="source" v="CP:201810"/>
  </node>
  <node id="5423513129" version="1" lat="49.7388711" lon="14.2333823" action="modify">
    <tag k="amenity" v="post_box"/>
    <tag k="collection_times" v="Mo-Fr 9:00"/>
    <tag k="operator" v="Česká pošta, s.p."/>
    <tag k="ref" v="26107:55"/>
    <tag k="source" v="CP:201810"/>
  </node>
  <node id="5583044864" version="1" lat="49.5433993" lon="14.1982458" action="modify">
    <tag k="amenity" v="post_box"/>
    <tag k="collection_times" v="Mo-Fr 8:30"/>
    <tag k="operator" v="Česká pošta, s.p."/>
    <tag k="ref" v="26107:277"/>
    <tag k="source" v="CP:201810"/>
  </node>
  <node id="5584998876" version="1" lat="49.6318976" lon="13.9843097" action="modify">
    <tag k="amenity" v="post_box"/>
    <tag k="collection_times" v="Mo-Fr 8:00"/>
    <tag k="operator" v="Česká pošta, s.p."/>
    <tag k="ref" v="26107:149"/>
    <tag k="source" v="CP:201810"/>
  </node>
  <node id="5584998869" version="1" lat="49.6167588" lon="13.9293476" action="modify">
    <tag k="amenity" v="post_box"/>
    <tag k="collection_times" v="Mo-Fr 9:00"/>
    <tag k="operator" v="Česká pošta, s.p."/>
    <tag k="ref" v="26107:116"/>
    <tag k="source" v="CP:201810"/>
  </node>
  <node id="5583044891" version="1" lat="49.5534789" lon="14.4417929" action="modify">
    <tag k="amenity" v="post_box"/>
    <tag k="collection_times" v="Mo-Fr 9:50"/>
    <tag k="operator" v="Česká pošta, s.p."/>
    <tag k="ref" v="26107:184"/>
    <tag k="source" v="CP:201810"/>
  </node>
  <node id="5583044881" version="1" lat="49.5534326" lon="14.3007118" action="modify">
    <tag k="amenity" v="post_box"/>
    <tag k="collection_times" v="Mo-Fr 9:50"/>
    <tag k="operator" v="Česká pošta, s.p."/>
    <tag k="ref" v="26107:312"/>
    <tag k="source" v="CP:201810"/>
  </node>
  <node id="5625244402" version="1" lat="49.7285838" lon="14.2562373" action="modify">
    <tag k="amenity" v="post_box"/>
    <tag k="collection_times" v="Mo-Fr 9:00"/>
    <tag k="operator" v="Česká pošta, s.p."/>
    <tag k="ref" v="26107:49"/>
    <tag k="source" v="CP:201810"/>
  </node>
  <node id="5583044853" version="1" lat="49.5601036" lon="14.0262038" action="modify">
    <tag k="amenity" v="post_box"/>
    <tag k="collection_times" v="Mo-Fr 9:00"/>
    <tag k="operator" v="Česká pošta, s.p."/>
    <tag k="ref" v="26107:96"/>
    <tag k="source" v="CP:201810"/>
  </node>
  <node id="5584998862" version="1" lat="49.5953809" lon="13.9058436" action="modify">
    <tag k="amenity" v="post_box"/>
    <tag k="collection_times" v="Mo-Fr 9:00"/>
    <tag k="operator" v="Česká pošta, s.p."/>
    <tag k="ref" v="26107:110"/>
    <tag k="source" v="CP:201810"/>
  </node>
  <node id="5583044847" version="1" lat="49.5889083" lon="14.0160117" action="modify">
    <tag k="amenity" v="post_box"/>
    <tag k="collection_times" v="Mo-Fr 9:00"/>
    <tag k="operator" v="Česká pošta, s.p."/>
    <tag k="ref" v="26107:86"/>
    <tag k="source" v="CP:201810"/>
  </node>
  <node id="5479036483" version="1" lat="49.6647255" lon="13.9653632" action="modify">
    <tag k="amenity" v="post_box"/>
    <tag k="collection_times" v="Mo-Fr 8:15"/>
    <tag k="operator" v="Česká pošta, s.p."/>
    <tag k="ref" v="26107:160"/>
    <tag k="source" v="CP:201810"/>
  </node>
  <node id="5583044850" version="1" lat="49.5556833" lon="14.0000296" action="modify">
    <tag k="amenity" v="post_box"/>
    <tag k="collection_times" v="Mo-Fr 9:00"/>
    <tag k="operator" v="Česká pošta, s.p."/>
    <tag k="ref" v="26107:69"/>
    <tag k="source" v="CP:201810"/>
  </node>
  <node id="5589059131" version="1" lat="49.7205978" lon="14.2746718" action="modify">
    <tag k="amenity" v="post_box"/>
    <tag k="collection_times" v="Mo-Fr 9:00"/>
    <tag k="operator" v="Česká pošta, s.p."/>
    <tag k="ref" v="26107:52"/>
    <tag k="source" v="CP:201810"/>
  </node>
  <node id="5584998877" version="1" lat="49.6241622" lon="13.992411" action="modify">
    <tag k="amenity" v="post_box"/>
    <tag k="collection_times" v="Mo-Fr 9:00"/>
    <tag k="operator" v="Česká pošta, s.p."/>
    <tag k="ref" v="26107:236"/>
    <tag k="source" v="CP:201810"/>
  </node>
  <node id="901570269" version="4" lat="49.6799094" lon="14.2643743" action="modify">
    <tag k="amenity" v="post_box"/>
    <tag k="collection_times" v="Mo-Fr 9:00"/>
    <tag k="operator" v="Česká pošta, s.p."/>
    <tag k="ref" v="26107:57"/>
    <tag k="source" v="CP:201810"/>
  </node>
  <node id="5581151985" version="1" lat="49.6716973" lon="14.5051096" action="modify">
    <tag k="amenity" v="post_box"/>
    <tag k="collection_times" v="Mo-Fr 8:20"/>
    <tag k="operator" v="Česká pošta, s.p."/>
    <tag k="ref" v="26107:205"/>
    <tag k="source" v="CP:201810"/>
  </node>
  <node id="5583044825" version="1" lat="49.6270383" lon="14.1012374" action="modify">
    <tag k="amenity" v="post_box"/>
    <tag k="collection_times" v="Mo-Fr 9:00"/>
    <tag k="operator" v="Česká pošta, s.p."/>
    <tag k="ref" v="26107:242"/>
    <tag k="source" v="CP:201810"/>
  </node>
  <node id="5625244400" version="1" lat="49.5980626" lon="13.9889297" action="modify">
    <tag k="amenity" v="post_box"/>
    <tag k="collection_times" v="Mo-Fr 10:00"/>
    <tag k="operator" v="Česká pošta, s.p."/>
    <tag k="ref" v="26107:97"/>
    <tag k="source" v="CP:201810"/>
  </node>
  <node id="5581151962" version="2" lat="49.6509653" lon="14.3601738" action="modify">
    <tag k="amenity" v="post_box"/>
    <tag k="collection_times" v="Mo-Fr 8:40"/>
    <tag k="operator" v="Česká pošta, s.p."/>
    <tag k="ref" v="26107:221"/>
    <tag k="source" v="CP:201810"/>
  </node>
  <node id="5581151964" version="1" lat="49.6588485" lon="14.3647797" action="modify">
    <tag k="amenity" v="post_box"/>
    <tag k="collection_times" v="Mo-Fr 8:45"/>
    <tag k="operator" v="Česká pošta, s.p."/>
    <tag k="ref" v="26107:223"/>
    <tag k="source" v="CP:201810"/>
  </node>
  <node id="5581151976" version="1" lat="49.6560736" lon="14.4341179" action="modify">
    <tag k="amenity" v="post_box"/>
    <tag k="collection_times" v="Mo-Fr 9:00"/>
    <tag k="operator" v="Česká pošta, s.p."/>
    <tag k="ref" v="26107:178"/>
    <tag k="source" v="CP:201810"/>
  </node>
  <node id="5583044858" version="1" lat="49.5735924" lon="14.1017389" action="modify">
    <tag k="amenity" v="post_box"/>
    <tag k="collection_times" v="Mo-Fr 9:00"/>
    <tag k="operator" v="Česká pošta, s.p."/>
    <tag k="ref" v="26107:93"/>
    <tag k="source" v="CP:201810"/>
  </node>
  <node id="5586798024" version="1" lat="49.5572404" lon="13.9669852" action="modify">
    <tag k="amenity" v="post_box"/>
    <tag k="collection_times" v="Mo-Fr 8:30"/>
    <tag k="operator" v="Česká pošta, s.p."/>
    <tag k="ref" v="26107:65"/>
    <tag k="source" v="CP:201810"/>
  </node>
  <node id="5586798021" version="1" lat="49.5571177" lon="13.9551815" action="modify">
    <tag k="amenity" v="post_box"/>
    <tag k="collection_times" v="Mo-Fr 8:30"/>
    <tag k="operator" v="Česká pošta, s.p."/>
    <tag k="ref" v="26107:67"/>
    <tag k="source" v="CP:201810"/>
  </node>
  <node id="5589059126" version="1" lat="49.6481019" lon="14.3467981" action="modify">
    <tag k="amenity" v="post_box"/>
    <tag k="collection_times" v="Mo-Fr 8:20"/>
    <tag k="operator" v="Česká pošta, s.p."/>
    <tag k="ref" v="26107:222"/>
    <tag k="source" v="CP:201810"/>
  </node>
  <node id="5583044890" version="1" lat="49.5638009" lon="14.4311703" action="modify">
    <tag k="amenity" v="post_box"/>
    <tag k="collection_times" v="Mo-Fr 9:30"/>
    <tag k="operator" v="Česká pošta, s.p."/>
    <tag k="ref" v="26107:183"/>
    <tag k="source" v="CP:201810"/>
  </node>
  <node id="5583044869" version="1" lat="49.5770756" lon="14.2374413" action="modify">
    <tag k="amenity" v="post_box"/>
    <tag k="collection_times" v="Mo-Fr 9:25"/>
    <tag k="operator" v="Česká pošta, s.p."/>
    <tag k="ref" v="26107:289"/>
    <tag k="source" v="CP:201810"/>
  </node>
  <node id="5581151950" version="1" lat="49.636445" lon="14.3113539" action="modify">
    <tag k="amenity" v="post_box"/>
    <tag k="collection_times" v="Mo-Fr 10:00"/>
    <tag k="operator" v="Česká pošta, s.p."/>
    <tag k="ref" v="26107:293"/>
    <tag k="source" v="CP:201810"/>
  </node>
  <node id="5443028599" version="1" lat="49.6812201" lon="14.2164336" action="modify">
    <tag k="amenity" v="post_box"/>
    <tag k="collection_times" v="Mo-Fr 9:30"/>
    <tag k="operator" v="Česká pošta, s.p."/>
    <tag k="ref" v="26107:44"/>
    <tag k="source" v="CP:201810"/>
  </node>
  <node id="5584998847" version="1" lat="49.5212503" lon="13.95894" action="modify">
    <tag k="amenity" v="post_box"/>
    <tag k="collection_times" v="Mo-Fr 9:00"/>
    <tag k="operator" v="Česká pošta, s.p."/>
    <tag k="ref" v="26107:402"/>
    <tag k="source" v="CP:201810"/>
  </node>
  <node id="5581151959" version="1" lat="49.609522" lon="14.4558825" action="modify">
    <tag k="amenity" v="post_box"/>
    <tag k="collection_times" v="Mo-Fr 8:45"/>
    <tag k="operator" v="Česká pošta, s.p."/>
    <tag k="ref" v="26107:197"/>
    <tag k="source" v="CP:201810"/>
  </node>
  <node id="2413001472" version="4" lat="49.755861" lon="14.1914782" action="modify">
    <tag k="amenity" v="post_box"/>
    <tag k="collection_times" v="Mo-Fr 9:00"/>
    <tag k="operator" v="Česká pošta, s.p."/>
    <tag k="ref" v="26107:59"/>
    <tag k="source" v="survey;CP:201810"/>
  </node>
  <node id="5584998872" version="1" lat="49.5971131" lon="13.9912149" action="modify">
    <tag k="amenity" v="post_box"/>
    <tag k="collection_times" v="Mo-Fr 9:00"/>
    <tag k="operator" v="Česká pošta, s.p."/>
    <tag k="ref" v="26107:398"/>
    <tag k="source" v="CP:201810"/>
  </node>
  <node id="5589059130" version="1" lat="49.6527693" lon="13.9965952" action="modify">
    <tag k="amenity" v="post_box"/>
    <tag k="collection_times" v="Mo-Fr 8:00"/>
    <tag k="operator" v="Česká pošta, s.p."/>
    <tag k="ref" v="26107:169"/>
    <tag k="source" v="CP:201810"/>
  </node>
  <node id="5415306324" version="1" lat="49.8061621" lon="14.2934051" action="modify">
    <tag k="amenity" v="post_box"/>
    <tag k="collection_times" v="Mo-Fr 8:30"/>
    <tag k="fixme" v="fixme"/>
    <tag k="operator" v="Česká pošta, s.p."/>
    <tag k="ref" v="26107:347"/>
    <tag k="source" v="CP:201810"/>
  </node>
  <node id="5589059125" version="1" lat="49.7111256" lon="14.3691607" action="modify">
    <tag k="amenity" v="post_box"/>
    <tag k="collection_times" v="Mo-Fr 11:00"/>
    <tag k="operator" v="Česká pošta, s.p."/>
    <tag k="ref" v="26107:229"/>
    <tag k="source" v="CP:201810"/>
  </node>
</osm>
